1 40811U 93036BWQ 18212.65160887  .00000619  00000-0  11576-3 0  9999
2 40811  74.0273 332.0539 0046360  25.1195 335.2214 14.66530951649713
1 41127U 00055BJ  18213.50026407  .00000963  00000-0  35044-3 0  9991
2 41127  98.8112 311.5239 0090066 123.7603 237.2202 14.33240942138971
1 40711U 93055D   18212.81103186  .00000732  00000-0  53111-3 0  9993
2 40711  82.5463  30.6629 0016087 277.5895  82.3444 13.95167593698674
1 41130U 00055BM  18212.67125958  .00000444  00000-0  23682-3 0  9992
2 41130  98.8827 296.1489 0026147 177.4126 182.7189 14.18216301137172
1 41084U 00055AT  18213.21509943  .00000249  00000-0  14826-3 0  9994
2 41084  98.8497 291.9123 0017930 191.6984 168.3775 14.16086258138313
1 40797U 93036BWA 18212.31331523  .00000206  00000-0  29550-4 0  9996
2 40797  73.9400  82.5380 0124645 267.2033 213.3622 14.79245874336421
1 41140U 00055BX  18212.17733308  .00000380  00000-0  17432-3 0  9997
2 41140  98.8047 298.4450 0069391 131.7782 228.9355 14.25749273139042
1 41087U 00055AW  18213.17601293  .00000137  00000-0  10487-3 0  9998
2 41087  98.8484 281.1026 0015148  51.4474 308.8051 14.08601445137242
1 41143U 00055CA  18212.95001445 +.00000460 +00000-0 +37992-3 0  9998
2 41143 098.8494 250.3400 0103561 143.8288 216.9934 13.91339126135495
1 41007U 99025EXM 18209.82811177 +.00000497 +00000-0 +48980-3 0  9994
2 41007 099.9831 064.4324 0188227 176.0968 184.1700 13.76404544202644
1 41071U 00055AE  18213.19602656  .00000420  00000-0  24801-3 0  9997
2 41071  98.8998 291.3667 0010952 293.9307  66.0717 14.13208847138164
1 41074U 00055AH  18212.71551635 +.00000155 +00000-0 +67580-4 0  9994
2 41074 098.7031 303.7430 0103647 090.3487 270.9575 14.34045744140071
1 40991U 15044C   17281.88019700  .00000101  00000-0  00000+0 0  9990
2 40991  18.3581 189.5748 6146201  68.9010 344.1042  2.08537456 15720
1 40818U 10057AK  18212.72413446 -.00000129  00000-0  00000+0 0  9991
2 40818  20.6714  17.0574 7116091 158.5944 260.6266  2.25695632 27971
1 40786U 89006CF  18206.35749677 +.00000011 +00000-0 +73676-3 0  9997
2 40786 007.7063 205.0784 7141443 228.3375 316.0234 02.26361867119775
1 40994U 97051ABG 18212.35767607 +.00001464 +00000-0 +25610-3 0  9995
2 40994 086.3913 078.5564 0008243 164.1408 196.0065 14.67185063204592
1 41159U 00055CS  18212.99161676  .00000478  00000-0  25753-3 0  9993
2 41159  98.7930 286.5914 0024280 215.8361 144.1185 14.17336727137911
1 41133U 00055BQ  18212.00120055 -.00000790  00000-0 -39025-3 0  9999
2 41133  98.9540 293.3572 0017754 138.5014 221.7510 14.14217772136415
1 41042U 15064E   18213.10795585  .00001821  00000-0  13522-3 0  9990
2 41042  97.1587 262.9912 0202095  91.2484 271.1895 14.89210723146648
1 40830U 10057AX  15282.25758233  .00000102  00000-0  28443-2 0  9997
2 40830  20.5834  15.6925 7137220 234.6349  36.7777  2.22854353869431
1 41162U 00055CV  18211.98544086 +.00000398 +00000-0 +25139-3 0  9994
2 41162 098.8623 279.4239 0038734 114.2750 246.2474 14.09328932136766
1 41058U 00055R   18211.10273708 +.00000342 +00000-0 +22869-3 0  9998
2 41058 098.8206 274.2830 0026514 025.7739 334.4745 14.07344105137471
1 40835U 10057BC  18210.69144986 -.00000162  00000-0  32783-3 0  9998
2 40835  20.3808  27.3817 7192953 145.0774 295.8713  2.20215056 27260
1 40800U 93036BWD 18212.45938953  .00001316  00000-0  28480-3 0  9999
2 40800  73.7909 121.1498 0187917 226.1399 251.5181 14.49004212335450
1 40804U 93036BWH 18208.81335970 +.00003885 +00000-0 +32066-3 0  9996
2 40804 074.0244 249.8820 0018184 289.3503 191.3328 14.99251783340894
1 41010U 99025EXQ 18211.60096247  .00000389  00000-0  24564-3 0  9992
2 41010  99.2186 337.4679 0041135  38.8709  25.8077 14.09871529305396
1 41205U 00055DJ  18213.02513887  .00000817  00000-0  43176-3 0  9991
2 41205  98.9408 298.3808 0027429 158.0027 202.2330 14.16456060135607
1 41013U 99025EXT 18211.40861130  .00000915  00000-0  36752-3 0  9991
2 41013  99.0724  83.5580 0414079 191.8308 167.2889 13.92739708177708
1 41208U 00055DM  18213.10403980  .00000218  00000-0  16190-3 0  9996
2 41208  98.8282 270.1463 0040470  99.1837 261.3912 14.04497980134490
1 40824U 10057AR  17115.18755859  .00000770  00000-0  12337-1 0  9995
2 40824  19.3558 171.3014 7181525 252.2751  23.0491  2.22072289891642
1 40997U 97051ABK 18205.32945971 +.00006288 +00000-0 +61148-3 0  9994
2 40997 086.3572 063.8518 0010412 298.7037 061.3143 14.92376587373640
1 41049U 00055G   18212.95863981  .00000401  00000-0  24043-3 0  9992
2 41049  98.8366 283.6021 0009262 136.8517 223.3382 14.12560515138221
1 41165U 00055CY  18212.93004571 +.00000417 +00000-0 +26342-3 0  9992
2 41165 098.7636 269.5035 0024359 005.4696 354.6736 14.09302518136918
1 41061U 00055U   18212.69229781 +.00000141 +00000-0 +94355-4 0  9996
2 41061 098.8560 291.4945 0021047 241.7052 118.1999 14.15747688138505
1 41053U 00055L   18212.89618677 +.00000737 +00000-0 +35668-3 0  9997
2 41053 098.9283 305.2080 0038686 196.4701 163.5221 14.21247247139042
1 41090U 00055AZ  18213.10185416  .00001502  00000-0  69481-3 0  9994
2 41090  98.9229 303.7653 0036649 206.5819 153.3479 14.22050152138401
1 40872U 12035F   18097.02015033 -.00000171  00000-0  00000+0 0  9990
2 40872   2.8071  89.3264 0088581 151.1408 209.6572  1.02741501 16990
1 41146U 00055CD  18212.42490232  .00000615  00000-0  35747-3 0  9997
2 41146  98.8876 284.8506 0033874 116.4252 244.0402 14.12051537137324
1 40807U 93036BWL 18213.02642128  .00000558  00000-0  23434-3 0  9997
2 40807  74.0273 329.4906 0104418 335.1483  24.4654 14.25297645386379
1 41152U 00055CK  18212.66108923  .00000530  00000-0  29040-3 0  9998
2 41152  98.8709 292.1158 0015466 187.4774 172.6171 14.16140519137697
1 41016U 99025EXW 18123.68284525  .00000396  00000-0  27532-3 0  9992
2 41016  98.2543  72.1690 0177193 118.8411 243.0668 13.96157698210986
1 41077U 00055AL  18213.15595207 -.00000142  00000-0 -74677-4 0  9992
2 41077  99.1192 281.7912 0117692 123.1264 238.1254 13.91140744135971
1 40793U 93036BVW 18173.84966869  .00000359  00000-0  21328-3 0  9996
2 40793  73.9809 234.3820 0231930 260.8496  96.6334 13.98646645300248
1 41000U 99025EXE 18211.14964735 -.00000113  00000-0 -72389-4 0  9992
2 41000  97.5437 340.0549 0388840  54.9260 308.7709 13.58328851476458
1 40857U 12008X   18209.40238095 -.00000142 +00000-0 +14213-2 0  9997
2 40857 020.1079 322.6556 7157979 177.1399 192.2914 02.21537116029834
1 41056U 00055P   18212.84160585 +.00000148 +00000-0 +11059-3 0  9999
2 41056 098.8119 277.9314 0016744 016.3651 343.8056 14.08939611137902
1 41093U 00055BC  18213.09551209  .00001442  00000-0  48723-3 0  9991
2 41093  98.8766 320.7499 0095349 124.6931 236.3283 14.35939647139655
1 40916U 82118J   18211.47391124 +.00000960 +00000-0 +33844-3 0  9994
2 40916 098.5168 041.0094 0019968 028.7004 331.5277 14.36934775123778
1 41149U 00055CG  18213.09448688  .00001028  00000-0  41476-3 0  9997
2 41149  98.8979 313.0811 0076739 170.3440 189.9237 14.28554171139245
1 41096U 00055BF  18212.58294078 +.00001397 +00000-0 +33832-3 0  9999
2 41096 098.8667 338.5676 0138296 060.2201 301.2663 14.49107012140672
1 40924U 85102G   18212.82717868 -.00000248 +00000-0 +00000-0 0  9991
2 40924 014.0455 343.1165 0023219 055.1435 298.2337 01.00322939038579
1 41126U 00055BH  18213.40569795 -.00000063  00000-0 -13873-4 0  9991
2 41126  98.8630 265.5491 0080221 127.9241 232.9210 13.99275282135748
1 41023U 15061B   18212.56120860 +.00000890 +00000-0 +92514-4 0  9997
2 41023 097.2792 252.9534 0201734 099.6079 262.7989 14.78212479148343
1 41080U 00055AP  18213.43210389 -.00001008  00000-0 -51143-3 0  9996
2 41080  98.8247 286.3703 0006005 183.3553 176.7580 14.13592932137690
1 41136U 00055BT  18213.54498426  .00001695  00000-0  74132-3 0  9993
2 41136  99.0994 326.5526 0046645 171.1221 189.0792 14.24625012138427
1 40796U 93036BVZ 18212.54508491 +.00000199 +00000-0 +45040-4 0  9993
2 40796 074.0220 290.9021 0078588 021.7978 036.9078 14.61106913250514
1 41139U 00055BW  18213.39147422  .00000339  00000-0  26376-3 0  9997
2 41139  98.9735 271.6464 0078461 104.1979 256.7917 13.97540077135883
1 41003U 99025EXH 18212.55952538  .00000947  00000-0  36335-3 0  9992
2 41003  98.9602 330.0591 0140916 280.1642  78.3669 14.27741791216055
1 41198U 00055DB  18212.43692653  .00000324  00000-0  22328-3 0  9994
2 41198  98.9398 279.4366 0036983  68.3505 292.1596 14.05979985134508
1 41064U 00055X   18213.07007304  .00000621  00000-0  33594-3 0  9997
2 41064  98.8723 291.5862 0019807 250.9350 108.9678 14.16148136138530
1 41067U 00055AA  18212.67125240  .00000085  00000-0  69876-4 0  9992
2 41067  98.8347 285.0094 0004431 184.2314 175.8821 14.12485091138113
1 40707U 84072J   18212.18143385  .00000388  00000-0  30853-3 0  9997
2 40707  82.5265 167.9482 0013925 270.6426  89.3141 13.88837214189157
1 40810U 93036BWP 18211.61954476 +.00000226 +00000-0 +70573-4 0  9995
2 40810 074.0397 083.1281 0022869 179.3876 180.7315 14.46138620226837
1 40710U 84072M   18175.81117725  .00000187  00000-0  14306-3 0  9990
2 40710  82.5333 198.1965 0023568 355.1807  16.2868 13.88418127184265
1 40990U 15034F   18206.64741877 -.00000091 +00000-0 +00000-0 0  9997
2 40990 001.3216 208.3127 0078013 017.2034 342.6257 01.02653533011296
1 41155U 00055CN  18212.05960057  .00000444  00000-0  25128-3 0  9995
2 41155  98.8958 292.5653 0025043 159.9960 200.2200 14.15132564137515
1 41158U 00055CR  18213.47225380  .00000557  00000-0  30413-3 0  9996
2 41158  98.9162 297.3285 0017694 188.8506 171.2358 14.16096057137800
1 40789U 94085AA  16079.87703944  .00010879  00000-0  13474+0 0  9992
2 40789  64.8695  35.7059 0934165 344.9896  10.9466 11.20836072 27621
1 41041U 15064D   18212.37719748 +.00002239 +00000-0 +17195-3 0  9998
2 41041 097.2474 269.7346 0208611 105.3040 257.1339 14.86968248146336
1 40828U 10057AV  15203.28034756 +.00000353 +00000-0 +12955-1 0  9995
2 40828 020.8684 050.6336 7114068 165.2662 238.2739 02.24496229003816
1 41083U 00055AS  18213.48752010  .00000080  00000-0  11304-3 0  9998
2 41083  98.8922 231.1109 0207373 244.5032 113.4540 13.72998950134240
